{
  "norad_id": 61208,
  "name": "STARLINK-11291 [DTC]",
  "history": [
    {
      "epoch": "2026-05-04T15:55:28.070976Z",
      "apogee_km": 360.3085064607658,
      "perigee_km": 359.1725003136953,
      "latitude_deg": -5.832386049519013e-06,
      "longitude_deg": 158.64831377667565,
      "height_km": 360.78051863165706,
      "semi_major_axis_km": 6737.877503387231,
      "eccentricity": 8.43e-05,
      "inclination_deg": 53.1586,
      "raan_deg": 260.0649,
      "arg_perigee_deg": 102.8315,
      "mean_anomaly_deg": 257.2797,
      "mean_motion_rev_day": 15.69705194
    },
    {
      "epoch": "2026-05-04T15:55:28.071840Z",
      "apogee_km": 360.3087759758664,
      "perigee_km": 359.1722307985956,
      "latitude_deg": -9.436358565482386e-06,
      "longitude_deg": 158.64830748179838,
      "height_km": 360.7805784864064,
      "semi_major_axis_km": 6737.877503387231,
      "eccentricity": 8.434e-05,
      "inclination_deg": 53.1586,
      "raan_deg": 260.0649,
      "arg_perigee_deg": 102.8315,
      "mean_anomaly_deg": 257.2797,
      "mean_motion_rev_day": 15.69705194
    },
    {
      "epoch": "2026-05-07T15:44:35.808000Z",
      "apogee_km": 360.4840981536099,
      "perigee_km": 358.97212122299516,
      "latitude_deg": -1.0170567735972488e-05,
      "longitude_deg": 143.66106784340573,
      "height_km": 360.18470797843304,
      "semi_major_axis_km": 6737.865109688302,
      "eccentricity": 0.0001122,
      "inclination_deg": 53.1588,
      "raan_deg": 245.3094,
      "arg_perigee_deg": 52.7863,
      "mean_anomaly_deg": 307.3257,
      "mean_motion_rev_day": 15.69709525
    },
    {
      "epoch": "2026-05-08T13:08:09.665376Z",
      "apogee_km": 360.3760166492175,
      "perigee_km": 359.05270264218234,
      "latitude_deg": -3.115423436805642e-05,
      "longitude_deg": 177.4958085411545,
      "height_km": 360.63624072800076,
      "semi_major_axis_km": 6737.8513596457,
      "eccentricity": 9.82e-05,
      "inclination_deg": 53.1593,
      "raan_deg": 240.9138,
      "arg_perigee_deg": 90.7045,
      "mean_anomaly_deg": 269.4085,
      "mean_motion_rev_day": 15.6971433
    }
  ]
}